SAUDISAT 1C             
1 27607U 02058C   22296.08728295  .00001186  00000+0  18176-3 0  9990
2 27607  64.5538 271.2673 0081621 270.1644  89.0106 14.76345349 67424
SAUDISAT 2              
1 28371U 04025F   22296.16485983  .00000271  00000+0  74046-4 0  9991
2 28371  98.3960 253.2627 0026706  73.0397 287.3719 14.54627982971850
SAUDISAT 3              
1 31118U 07012B   22296.39871667  .00000245  00000+0  49479-4 0  9999
2 31118  97.9825 240.4272 0015878 144.1169 216.1106 14.69395881831948
PISAT                   
1 41784U 16059B   22295.67813592  .00000624  00000+0  12675-3 0  9991
2 41784  97.9024 333.9996 0032866 125.9423 234.4837 14.64059446324306
FLYING LAPTOP           
1 42831U 17042G   22295.83010793  .00000701  00000+0  74119-4 0  9996
2 42831  97.4085 142.8056 0012457 305.9359  54.0697 14.92033714287082
SALSAT                  
1 46495U 20068K   22295.83846351  .00003072  00000+0  21973-3 0  9998
2 46495  97.7410 237.2800 0015493 199.2700 160.7942 15.05123674113345
